{
  "norad_id": 48487,
  "name": "STARLINK-2494",
  "history": [
    {
      "epoch": "2026-03-28T08:12:00.818496",
      "apogee_km": 476.178812315562,
      "perigee_km": 474.28741923101006,
      "latitude_deg": -17.955764735957295,
      "longitude_deg": 141.50090943998657,
      "semi_major_axis_km": 6853.370115773286,
      "eccentricity": 0.00013799,
      "inclination_deg": 53.1595,
      "raan_deg": 107.388,
      "arg_perigee_deg": 90.7216,
      "mean_anomaly_deg": 269.3943,
      "mean_motion_rev_day": 15.30193956
    },
    {
      "epoch": "2026-03-29T04:34:42.229920",
      "apogee_km": 476.13011280844694,
      "perigee_km": 474.22489137686625,
      "latitude_deg": -52.022568151820366,
      "longitude_deg": -136.9864112001378,
      "semi_major_axis_km": 6853.314502092657,
      "eccentricity": 0.000139,
      "inclination_deg": 53.1593,
      "raan_deg": 103.4437,
      "arg_perigee_deg": 89.3829,
      "mean_anomaly_deg": 270.7331,
      "mean_motion_rev_day": 15.30212582
    }
  ]
}